[{"OBJECT_NAME":"YAOGAN-36 03A","OBJECT_ID":"2022-160A","EPOCH":"2026-03-09T21:08:19.248576","MEAN_MOTION":15.31468155,"ECCENTRICITY":0.00027649,"INCLINATION":34.9999,"RA_OF_ASC_NODE":237.2222,"ARG_OF_PERICENTER":84.1273,"MEAN_ANOMALY":275.9759,"EPHEMERIS_TYPE":0,"CLASSIFICATION_TYPE":"U","NORAD_CAT_ID":54372,"ELEMENT_SET_NO":999,"REV_AT_EPOCH":18296,"BSTAR":0.00056596392,"MEAN_MOTION_DOT":0.00017652,"MEAN_MOTION_DDOT":0},{"OBJECT_NAME":"STARLINK-35454","OBJECT_ID":"2025-245C","EPOCH":"2026-03-09T21:12:29.316096","MEAN_MOTION":15.30201576,"ECCENTRICITY":0.00011603,"INCLINATION":53.1571,"RA_OF_ASC_NODE":283.1826,"ARG_OF_PERICENTER":89.586,"MEAN_ANOMALY":270.5273,"EPHEMERIS_TYPE":0,"CLASSIFICATION_TYPE":"U","NORAD_CAT_ID":66236,"ELEMENT_SET_NO":999,"REV_AT_EPOCH":2112,"BSTAR":0.00087154189,"MEAN_MOTION_DOT":0.00025543,"MEAN_MOTION_DDOT":0}]
